STARLINK-32483          
1 61856U 24202M   26068.52349862  .00000449  00000+0  25849-4 0  9995
2 61856  43.0034 238.8052 0001323 272.4638  87.6062 15.27569381 75313
FLOCK 4G-36             
1 62675U 25009BU  26068.70726311  .00013573  00000+0  51122-3 0  9993
2 62675  97.4053 151.0513 0003474 324.2456  35.8550 15.27209548 63701
